start=new Date('2022-10-21T00:00:00.000Z').valueOf();
sats=[{"MEAN_MOTION":"15.06396270","ELEMENT_SET_NO":"999","MEAN_MOTION_DOT":"0.00001622","INCLINATION":"53.0554","MEAN_MOTION_DDOT":"0.0000000000000","CENTER_NAME":"EARTH","GP_ID":"215723805","SITE":"AFETR","FILE":"3626396","OBJECT_TYPE":"PAYLOAD","TLE_LINE1":"1 47405U 21005BJ  22293.76020828  .00001622  00000-0  12775-3 0  9995","PERIAPSIS":"546.243","APOAPSIS":"548.207","MEAN_ANOMALY":"282.7088","NORAD_CAT_ID":"47405","TLE_LINE2":"2 47405  53.0554 209.9185 0001418  77.4060 282.7088 15.06396270 96757","OBJECT_ID":"2021-005BJ","REV_AT_EPOCH":"9675","ECCENTRICITY":"0.00014180","SEMIMAJOR_AXIS":"6925.360","EPOCH":"2022-10-20T18:14:41.995392","ARG_OF_PERICENTER":"77.4060","RCS_SIZE":"LARGE","REF_FRAME":"TEME","CLASSIFICATION_TYPE":"U","RA_OF_ASC_NODE":"209.9185","COUNTRY_CODE":"US","EPHEMERIS_TYPE":"0","BSTAR":"0.00012775000000","DECAY_DATE":null,"OBJECT_NAME":"STARLINK-2130","MEAN_ELEMENT_THEORY":"SGP4","PERIOD":"95.592","LAUNCH_DATE":"2021-01-20","TIME_SYSTEM":"UTC"},{"REV_AT_EPOCH":"9717","ECCENTRICITY":"0.00018690","OBJECT_ID":"2021-005BK","MEAN_ANOMALY":"228.4138","NORAD_CAT_ID":"47406","TLE_LINE2":"2 47406  53.0560 180.1060 0001869 131.7012 228.4138 15.06392251 97173","CLASSIFICATION_TYPE":"U","RA_OF_ASC_NODE":"180.1060","RCS_SIZE":"LARGE","REF_FRAME":"TEME","EPOCH":"2022-10-20T17:20:17.574432","ARG_OF_PERICENTER":"131.7012","SEMIMAJOR_AXIS":"6925.372","COUNTRY_CODE":"US","LAUNCH_DATE":"2021-01-20","TIME_SYSTEM":"UTC","OBJECT_NAME":"STARLINK-2133","DECAY_DATE":null,"MEAN_ELEMENT_THEORY":"SGP4","PERIOD":"95.593","BSTAR":"0.00017653000000","EPHEMERIS_TYPE":"0","ELEMENT_SET_NO":"999","MEAN_MOTION":"15.06392251","INCLINATION":"53.0560","MEAN_MOTION_DDOT":"0.0000000000000","MEAN_MOTION_DOT":"0.00002348","OBJECT_TYPE":"PAYLOAD","TLE_LINE1":"1 47406U 21005BK  22293.72242563  .00002348  00000-0  17653-3 0  9990","SITE":"AFETR","FILE":"3626396","GP_ID":"215725055","CENTER_NAME":"EARTH","APOAPSIS":"548.532","PERIAPSIS":"545.943"},{"TIME_SYSTEM":"UTC","LAUNCH_DATE":"2021-01-20","MEAN_ELEMENT_THEORY":"SGP4","PERIOD":"95.592","OBJECT_NAME":"STARLINK-2134","DECAY_DATE":null,"EPHEMERIS_TYPE":"0","BSTAR":"0.00017519000000","COUNTRY_CODE":"US","RA_OF_ASC_NODE":"180.3687","CLASSIFICATION_TYPE":"U","REF_FRAME":"TEME","RCS_SIZE":"LARGE","ARG_OF_PERICENTER":"112.2887","EPOCH":"2022-10-20T15:55:21.967680","SEMIMAJOR_AXIS":"6925.360","ECCENTRICITY":"0.00012350","REV_AT_EPOCH":"9716","OBJECT_ID":"2021-005BL","TLE_LINE2":"2 47407  53.0549 180.3687 0001235 112.2887 247.8233 15.06396317 97166","NORAD_CAT_ID":"47407","MEAN_ANOMALY":"247.8233","PERIAPSIS":"546.370","APOAPSIS":"548.080","OBJECT_TYPE":"PAYLOAD","TLE_LINE1":"1 47407U 21005BL  22293.66344870  .00002329  00000-0  17519-3 0  9998","FILE":"3626396","SITE":"AFETR","CENTER_NAME":"EARTH","GP_ID":"215724789","INCLINATION":"53.0549","MEAN_MOTION_DDOT":"0.0000000000000","MEAN_MOTION_DOT":"0.00002329","ELEMENT_SET_NO":"999","MEAN_MOTION":"15.06396317"},{"APOAPSIS":"548.637","PERIAPSIS":"545.800","OBJECT_TYPE":"PAYLOAD","TLE_LINE1":"1 47408U 21005BM  22293.70031411  .00002841  00000-0  20954-3 0  9994","FILE":"3626396","SITE":"AFETR","CENTER_NAME":"EARTH","GP_ID":"215723555","INCLINATION":"53.0549","MEAN_MOTION_DDOT":"0.0000000000000","MEAN_MOTION_DOT":"0.00002841","ELEMENT_SET_NO":"999","MEAN_MOTION":"15.06398428","TIME_SYSTEM":"UTC","LAUNCH_DATE":"2021-01-20","PERIOD":"95.592","MEAN_ELEMENT_THEORY":"SGP4","DECAY_DATE":null,"OBJECT_NAME":"STARLINK-2135","EPHEMERIS_TYPE":"0","BSTAR":"0.00020954000000","COUNTRY_CODE":"US","RA_OF_ASC_NODE":"180.2033","CLASSIFICATION_TYPE":"U","REF_FRAME":"TEME","RCS_SIZE":"LARGE","EPOCH":"2022-10-20T16:48:27.139104","ARG_OF_PERICENTER":"108.0436","SEMIMAJOR_AXIS":"6925.353","ECCENTRICITY":"0.00020480","REV_AT_EPOCH":"9717","OBJECT_ID":"2021-005BM","TLE_LINE2":"2 47408  53.0549 180.2033 0002048 108.0436 252.0776 15.06398428 97173","NORAD_CAT_ID":"47408","MEAN_ANOMALY":"252.0776"},{"COUNTRY_CODE":"US","TIME_SYSTEM":"UTC","LAUNCH_DATE":"2021-02-04","EPHEMERIS_TYPE":"0","BSTAR":"0.00004657400000","PERIOD":"95.592","MEAN_ELEMENT_THEORY":"SGP4","OBJECT_NAME":"STARLINK-1782","DECAY_DATE":null,"OBJECT_ID":"2021-009A","ECCENTRICITY":"0.00012190","REV_AT_EPOCH":"9467","TLE_LINE2":"2 47548  53.0544 159.2845 0001219  98.5074 261.6053 15.06403939 94670","NORAD_CAT_ID":"47548","MEAN_ANOMALY":"261.6053","REF_FRAME":"TEME","RCS_SIZE":"LARGE","RA_OF_ASC_NODE":"159.2845","CLASSIFICATION_TYPE":"U","SEMIMAJOR_AXIS":"6925.336","ARG_OF_PERICENTER":"98.5074","EPOCH":"2022-10-20T21:43:01.454880","FILE":"3626396","SITE":"AFETR","OBJECT_TYPE":"PAYLOAD","TLE_LINE1":"1 47548U 21009A   22293.90487795  .00000412  00000-0  46574-4 0  9994","GP_ID":"215724070","CENTER_NAME":"EARTH","APOAPSIS":"548.046","PERIAPSIS":"546.357","ELEMENT_SET_NO":"999","MEAN_MOTION":"15.06403939","INCLINATION":"53.0544","MEAN_MOTION_DDOT":"0.0000000000000","MEAN_MOTION_DOT":"0.00000412"},{"REV_AT_EPOCH":"9467","ECCENTRICITY":"0.00013230","OBJECT_ID":"2021-009B","MEAN_ANOMALY":"242.6267","NORAD_CAT_ID":"47549","TLE_LINE2":"2 47549  53.0533 159.2913 0001323 117.4857 242.6267 15.06404411 94673","RA_OF_ASC_NODE":"159.2913","CLASSIFICATION_TYPE":"U","RCS_SIZE":"LARGE","REF_FRAME":"TEME","EPOCH":"2022-10-20T21:37:43.331808","ARG_OF_PERICENTER":"117.4857","SEMIMAJOR_AXIS":"6925.335","COUNTRY_CODE":"US","LAUNCH_DATE":"2021-02-04","TIME_SYSTEM":"UTC","OBJECT_NAME":"STARLINK-1806","DECAY_DATE":null,"PERIOD":"95.592","MEAN_ELEMENT_THEORY":"SGP4","BSTAR":"0.00009265100000","EPHEMERIS_TYPE":"0","ELEMENT_SET_NO":"999","MEAN_MOTION":"15.06404411","INCLINATION":"53.0533","MEAN_MOTION_DDOT":"0.0000000000000","MEAN_MOTION_DOT":"0.00001099","TLE_LINE1":"1 47549U 21009B   22293.90119597  .00001099  00000-0  92651-4 0  9996","OBJECT_TYPE":"PAYLOAD","SITE":"AFETR","FILE":"3626396","GP_ID":"215723821","CENTER_NAME":"EARTH","APOAPSIS":"548.116","PERIAPSIS":"546.284"},{"PERIAPSIS":"546.277","APOAPSIS":"548.164","CENTER_NAME":"EARTH","GP_ID":"215688342","SITE":"AFETR","FILE":"3625892","TLE_LINE1":"1 47550U 21009C   22293.58143750  .00001361  00000-0  11026-3 0  9998","OBJECT_TYPE":"PAYLOAD","MEAN_MOTION_DOT":"0.00001361","MEAN_MOTION_DDOT":"0.0000000000000","INCLINATION":"53.0528","MEAN_MOTION":"15.06397778","ELEMENT_SET_NO":"999","EPHEMERIS_TYPE":"0","BSTAR":"0.00011026000000","OBJECT_NAME":"STARLINK-1909","DECAY_DATE":null,"PERIOD":"95.592","MEAN_ELEMENT_THEORY":"SGP4","LAUNCH_DATE":"2021-02-04","TIME_SYSTEM":"UTC","COUNTRY_CODE":"US","SEMIMAJOR_AXIS":"6925.355","ARG_OF_PERICENTER":"113.1581","EPOCH":"2022-10-20T13:57:16.200000","RCS_SIZE":"LARGE","REF_FRAME":"TEME","CLASSIFICATION_TYPE":"U","RA_OF_ASC_NODE":"150.7126","MEAN_ANOMALY":"246.9551","NORAD_CAT_ID":"47550","TLE_LINE2":"2 47550  53.0528 150.7126 0001362 113.1581 246.9551 15.06397778 94761","OBJECT_ID":"2021-009C","REV_AT_EPOCH":"9476","ECCENTRICITY":"0.00013620"},{"CENTER_NAME":"EARTH","GP_ID":"215688592","FILE":"3625892","SITE":"AFETR","TLE_LINE1":"1 47551U 21009D   22293.04513794  .00003914  00000-0  28155-3 0  9996","OBJECT_TYPE":"PAYLOAD","PERIAPSIS":"546.436","APOAPSIS":"548.049","MEAN_MOTION":"15.06390551","ELEMENT_SET_NO":"999","MEAN_MOTION_DOT":"0.00003914","INCLINATION":"53.0547","MEAN_MOTION_DDOT":"0.0000000000000","COUNTRY_CODE":"US","BSTAR":"0.00028155000000","EPHEMERIS_TYPE":"0","MEAN_ELEMENT_THEORY":"SGP4","PERIOD":"95.593","OBJECT_NAME":"STARLINK-1938","DECAY_DATE":null,"TIME_SYSTEM":"UTC","LAUNCH_DATE":"2021-02-04","NORAD_CAT_ID":"47551","TLE_LINE2":"2 47551  53.0547 173.1451 0001165 101.2951 258.8169 15.06390551 94403","MEAN_ANOMALY":"258.8169","OBJECT_ID":"2021-009D","ECCENTRICITY":"0.00011650","REV_AT_EPOCH":"9440","SEMIMAJOR_AXIS":"6925.378","EPOCH":"2022-10-20T01:04:59.918016","ARG_OF_PERICENTER":"101.2951","RCS_SIZE":"LARGE","REF_FRAME":"TEME","RA_OF_ASC_NODE":"173.1451","CLASSIFICATION_TYPE":"U"},{"TIME_SYSTEM":"UTC","LAUNCH_DATE":"2021-02-04","BSTAR":"0.00008432900000","EPHEMERIS_TYPE":"0","PERIOD":"95.592","MEAN_ELEMENT_THEORY":"SGP4","DECAY_DATE":null,"OBJECT_NAME":"STARLINK-1940","COUNTRY_CODE":"US","REF_FRAME":"TEME","RCS_SIZE":"LARGE","RA_OF_ASC_NODE":"162.8230","CLASSIFICATION_TYPE":"U","SEMIMAJOR_AXIS":"6925.344","ARG_OF_PERICENTER":"113.9367","EPOCH":"2022-10-20T02:47:10.098240","OBJECT_ID":"2021-009E","ECCENTRICITY":"0.00013930","REV_AT_EPOCH":"9455","TLE_LINE2":"2 47552  53.0532 162.8230 0001393 113.9367 246.1768 15.06401407 94556","NORAD_CAT_ID":"47552","MEAN_ANOMALY":"246.1768","APOAPSIS":"548.174","PERIAPSIS":"546.245","FILE":"3625892","SITE":"AFETR","OBJECT_TYPE":"PAYLOAD","TLE_LINE1":"1 47552U 21009E   22293.11608910  .00000975  00000-0  84329-4 0  9990","CENTER_NAME":"EARTH","GP_ID":"215689843","INCLINATION":"53.0532","MEAN_MOTION_DDOT":"0.0000000000000","MEAN_MOTION_DOT":"0.00000975","ELEMENT_SET_NO":"999","MEAN_MOTION":"15.06401407"},{"ELEMENT_SET_NO":"999","MEAN_MOTION":"15.06395315","INCLINATION":"53.0537","MEAN_MOTION_DDOT":"0.0000000000000","MEAN_MOTION_DOT":"0.00000244","OBJECT_TYPE":"PAYLOAD","TLE_LINE1":"1 47554U 21009G   22293.78508126  .00000244  00000-0  35261-4 0  9993","FILE":"3626396","SITE":"AFETR","CENTER_NAME":"EARTH","GP_ID":"215724321","APOAPSIS":"548.139","PERIAPSIS":"546.317","ECCENTRICITY":"0.00013160","REV_AT_EPOCH":"9437","OBJECT_ID":"2021-009G","TLE_LINE2":"2 47554  53.0537 179.8036 0001316 114.1619 245.9507 15.06395315 94371","NORAD_CAT_ID":"47554","MEAN_ANOMALY":"245.9507","RA_OF_ASC_NODE":"179.8036","CLASSIFICATION_TYPE":"U","RCS_SIZE":"LARGE","REF_FRAME":"TEME","ARG_OF_PERICENTER":"114.1619","EPOCH":"2022-10-20T18:50:31.020864","SEMIMAJOR_AXIS":"6925.363","COUNTRY_CODE":"US","TIME_SYSTEM":"UTC","LAUNCH_DATE":"2021-02-04","MEAN_ELEMENT_THEORY":"SGP4","PERIOD":"95.592","OBJECT_NAME":"STARLINK-1953","DECAY_DATE":null,"BSTAR":"0.00003526100000","EPHEMERIS_TYPE":"0"}];
